{
  "type": "FeatureCollection",
  "features": [
    {
      "type": "Feature",
      "properties": {
        "ward": "Ward-1"
      },
      "geometry": {
        "type": "Polygon",
        "coordinates": [[
          [77.5, 12.9],
          [77.6, 12.9],
          [77.6, 13.0],
          [77.5, 13.0],
          [77.5, 12.9]
        ]]
      }
    },
    {
      "type": "Feature",
      "properties": {
        "ward": "Ward-2"
      },
      "geometry": {
        "type": "Polygon",
        "coordinates": [[
          [77.6, 12.9],
          [77.7, 12.9],
          [77.7, 13.0],
          [77.6, 13.0],
          [77.6, 12.9]
        ]]
      }
    },
    {
      "type": "Feature",
      "properties": {
        "ward": "Ward-3"
      },
      "geometry": {
        "type": "Polygon",
        "coordinates": [[
          [77.5, 13.0],
          [77.6, 13.0],
          [77.6, 13.1],
          [77.5, 13.1],
          [77.5, 13.0]
        ]]
      }
    },
    {
      "type": "Feature",
      "properties": {
        "ward": "Ward-4"
      },
      "geometry": {
        "type": "Polygon",
        "coordinates": [[
          [77.6, 13.0],
          [77.7, 13.0],
          [77.7, 13.1],
          [77.6, 13.1],
          [77.6, 13.0]
        ]]
      }
    },
    {
      "type": "Feature",
      "properties": {
        "ward": "Ward-5"
      },
      "geometry": {
        "type": "Polygon",
        "coordinates": [[
          [77.5, 12.8],
          [77.6, 12.8],
          [77.6, 12.9],
          [77.5, 12.9],
          [77.5, 12.8]
        ]]
      }
    },
    {
      "type": "Feature",
      "properties": {
        "ward": "Ward-6"
      },
      "geometry": {
        "type": "Polygon",
        "coordinates": [[
          [77.6, 12.8],
          [77.7, 12.8],
          [77.7, 12.9],
          [77.6, 12.9],
          [77.6, 12.8]
        ]]
      }
    },
    {
      "type": "Feature",
      "properties": {
        "ward": "Ward-7"
      },
      "geometry": {
        "type": "Polygon",
        "coordinates": [[
          [77.7, 12.9],
          [77.8, 12.9],
          [77.8, 13.0],
          [77.7, 13.0],
          [77.7, 12.9]
        ]]
      }
    },
    {
      "type": "Feature",
      "properties": {
        "ward": "Ward-8"
      },
      "geometry": {
        "type": "Polygon",
        "coordinates": [[
          [77.7, 13.0],
          [77.8, 13.0],
          [77.8, 13.1],
          [77.7, 13.1],
          [77.7, 13.0]
        ]]
      }
    },
    {
      "type": "Feature",
      "properties": {
        "ward": "Ward-9"
      },
      "geometry": {
        "type": "Polygon",
        "coordinates": [[
          [77.5, 13.1],
          [77.6, 13.1],
          [77.6, 13.2],
          [77.5, 13.2],
          [77.5, 13.1]
        ]]
      }
    },
    {
      "type": "Feature",
      "properties": {
        "ward": "Ward-10"
      },
      "geometry": {
        "type": "Polygon",
        "coordinates": [[
          [77.6, 13.1],
          [77.7, 13.1],
          [77.7, 13.2],
          [77.6, 13.2],
          [77.6, 13.1]
        ]]
      }
    },
    {
      "type": "Feature",
      "properties": {
        "ward": "Ward-11"
      },
      "geometry": {
        "type": "Polygon",
        "coordinates": [[
          [77.7, 13.1],
          [77.8, 13.1],
          [77.8, 13.2],
          [77.7, 13.2],
          [77.7, 13.1]
        ]]
      }
    },
    {
      "type": "Feature",
      "properties": {
        "ward": "Ward-12"
      },
      "geometry": {
        "type": "Polygon",
        "coordinates": [[
          [77.4, 12.9],
          [77.5, 12.9],
          [77.5, 13.0],
          [77.4, 13.0],
          [77.4, 12.9]
        ]]
      }
    }
  ]
}
